#aV2007 10 21  0  0   .00000000      96 DD+AD WGS84 FIT  NGA
## 1450       .00000000   900.00000000 54394  .0000000000000
+   31     1  2  3  4  5  6  7  8  9 10 11 12 13 14 16 17 18
+         19 20 21 22 23 24 25 26 27 28 29 30 31 32  0  0  0
+          0  0  0  0  0  0  0  0  0  0  0  0  0  0  0  0  0
+          0  0  0  0  0  0  0  0  0  0  0  0  0  0  0  0  0
+          0  0  0  0  0  0  0  0  0  0  0  0  0  0  0  0  0
++         0  0  0  0  0  0  0  0  0  0  0  0  0  0  0  0  0
++         0  0  0  0  0  0  0  0  0  0  0  0  0  0  0  0  0
++         0  0  0  0  0  0  0  0  0  0  0  0  0  0  0  0  0
++         0  0  0  0  0  0  0  0  0  0  0  0  0  0  0  0  0
++         0  0  0  0  0  0  0  0  0  0  0  0  0  0  0  0  0
%c cc cc ccc ccc cccc cccc cccc cccc ccccc ccccc ccccc ccccc
%c cc cc ccc ccc cccc cccc cccc cccc ccccc ccccc ccccc ccccc
%f  0.0000000  0.000000000  0.00000000000  0.000000000000000
%f  0.0000000  0.000000000  0.00000000000  0.000000000000000
%i    0    0    0    0      0      0      0      0         0
%i    0    0    0    0      0      0      0      0         0
/*      NGA, ST. LOUIS,MO.                                  
/*   EPHEMERIS COMPUTED FROM  3 DAYS OF DATA                
/* CCCCCCCCCCCCCCCCCCCCCCCCCCCCCCCCCCCCCCCCCCCCCCCCCCCCCCCCC
/* CCCCCCCCCCCCCCCCCCCCCCCCCCCCCCCCCCCCCCCCCCCCCCCCCCCCCCCCC
*  2007 10 21 23 45   .00000000                                                 
P  1  -9405.774466  16626.010307  18631.722311    161.257623                    
V  1 -22019.344274   7297.651375 -17910.362925       .029248                    
P  2  -6569.571210 -19574.929406  16684.250389    145.380860                    
V  2  18569.286815  10959.406670  19635.259614       .028047                    
P  3   2200.588955  16676.885344 -20727.563791    133.032723                    
V  3 -23125.687477  11926.920048   7570.022569       .055252                    
P  4   6626.659852 -14272.547854  21288.394719    -16.182444                    
V  4  22208.522516  15903.062486   4095.312732      -.037892                    
P  5 -15042.089990  -6138.549409  20774.038799    486.373260                    
V  5   1243.600115 -27009.931178  -6851.467412       .275286                    
P  6 -24796.376741   5580.384229   7942.662591    232.818537                    
V  6   7399.828121  -7348.687322  28901.639223      -.062503                    
P  7 -24747.338539   7663.132423   6283.456399    -43.728756                    
V  7   5155.517070  -6496.630581  29789.351340       .127005                    
P  8  14191.637451  -7057.575910 -21494.892404   -127.307534                    
V  8  20731.118642  17149.220331   7643.693878      -.012062                    
P  9 -21726.257912 -15445.419270   -963.377591     93.144660                    
V  9   1752.385916  -1742.687741 -31770.264034       .017556                    
P 10  -1723.424273 -25329.950161  -7328.034178   -116.054291                    
V 10   3919.809632  -8785.188073  30232.920614      -.131655                    
P 11  24164.684047  11414.624628    396.619847     25.178136                    
V 11  -1452.987956   4461.791632 -29980.073652       .004465                    
P 12 -12478.839521 -12785.309916  19765.917948   -345.648988                    
V 12   3788.366172 -24612.382635 -13525.052448      -.012811                    
P 13  25142.116544  -5376.454555   6513.839913    215.545278                    
V 13  -7186.921894   4637.519498  31092.312844       .027552                    
P 14 -19331.977589  15152.065971  10071.126633   -325.244158                    
V 14 -12358.636665   3204.258073 -28908.583545       .024947                    
P 16  -1974.849071  26328.462038  -1839.928978    120.857862                    
V 16  -3133.985861   2062.396124  31817.806098       .020165                    
P 17  20067.268484 -15098.178712   8444.691074     51.072598                    
V 17  10945.141372  -1746.038767 -29328.609144      -.010638                    
P 18 -15504.292337   7573.407162 -19929.971904   -229.987451                    
V 18   2409.911389 -25732.737950 -11903.794581       .020912                    
P 19  12502.323592  10918.789140 -20675.252307      2.598339                    
V 19 -24554.432017   9826.217078  -9470.544513       .022286                    
P 20  13886.765688   9287.132902  20555.592744    127.525310                    
V 20  -3400.118658  26154.887788  -9436.130298      -.005967                    
P 21 -21301.558401  -1699.888432 -15981.311878     77.354694                    
V 21 -14876.014613 -14110.270927  20544.163535      -.003562                    
P 22 -11720.652962  20625.248378 -11737.291834    201.121386                    
V 22   -410.654488 -15442.682976 -26401.947670       .009504                    
P 23  21010.275296   2769.229744  16083.336545    302.101387                    
V 23 -18078.184379   9658.148761  21630.608688       .035917                    
P 24 -22532.077273 -11330.078748  -7647.441713     40.133371                    
V 24  -5855.719113  -8740.299820  29747.311981       .029445                    
P 25  23350.121162   4778.697353 -11197.379928    465.962644                    
V 25  11417.775322   9808.177014  27268.967256       .071512                    
P 26  -9584.251558 -11823.502175 -22281.901556     69.624988                    
V 26  25149.039276  -9947.159210  -5119.364274       .126836                    
P 27  20601.371102   -118.100878 -16224.664825    142.754797                    
V 27  17334.788088  13262.020322  20874.691668       .024400                    
P 28  12493.478611 -18047.846013 -14354.334179     -9.013351                    
V 28   -105.985447  19119.696337 -23907.149114      -.006512                    
P 29  -4790.296056 -13701.326089 -22032.459967      6.076161                    
V 29  26116.664117 -11145.373630   1628.911651       .000921                    
P 30 -15416.728700    910.983485  21274.026345     49.763698                    
V 30   1615.449284 -27807.920408   2426.017395       .012073                    
P 31  -3173.680572  15878.713109  21239.128440      5.272536                    
V 31 -21879.040337 -14985.546747   8081.638283      -.013489                    
P 32  -5945.747318  25898.049309  -1367.948067    109.274810                    
V 32  -1888.382345  -2703.581690 -31849.585315       .146809                    
EOF
